#dP2024  6 28  0  0  0.00000000      96 __u+U IGS20 FIT  IAC
## 2320 432000.00000000   900.00000000 60489 0.0000000000000
+  128   C01C02C03C04C05C06C07C08C09C10C11C12C13C14C16C19C20
+        C21C22C23C24C25C26C27C28C29C30C32C33C34C35C36C37C38
+        C39C40C41C42C43C44C45C60E02E03E04E05E07E08E09E10E11
+        E12E13E14E15E18E19E21E25E26E27E30E31E33E34E36G01G02
+        G03G04G05G06G07G08G09G10G11G12G13G14G15G16G17G18G19
+        G20G21G22G23G24G25G26G27G28G29G30G31G32J02J03J04J07
+        R01R02R03R04R05R06R07R08R09R10R11R12R13R14R15R16R17
+        R18R19R20R21R22R23R24R25R26  0  0  0  0  0  0  0  0
++        18 17 17 17 17  9 10 10  9  9  8  9  9  8  9  8  7
++         7  7  7  7  7  7  7  7  8  7  7  7  7  7  8  7  8
++         8  9  7  7  7  7  8 17  4  4  5  4  5  4  4  4  4
++         4  4  5  4  5  5  6  4  4  5  5  5  5  5  5  5  4
++         4  4  4  4  4  5  4  4  4  4  4  4  4  4  4  4  4
++         4  4  4  0  4  4  4  4  4  4  4  4  4 11 11 11 17
++         7  6  6  6  6 15  6  6  6 15  6  6  8  6  6  6  6
++         6  7  8  6  6 15  6  8  8  0  0  0  0  0  0  0  0
%c M  cc GPS ccc cccc cccc cccc cccc ccccc ccccc ccccc ccccc
%c cc cc ccc ccc cccc cccc cccc cccc ccccc ccccc ccccc ccccc
%f  0.0000000  0.000000000  0.00000000000  0.000000000000000
%f  0.0000000  0.000000000  0.00000000000  0.000000000000000
%i    0    0    0    0      0      0      0      0         0
%i    0    0    0    0      0      0      0      0         0
/* INFORMATION & ANALYSIS CENTER (IAC)            RAPID DATA
/* S/V CLOCKS ARE ALIGNED TO GNSS TIME                      
/* G:C1WC2W R:C1PC2P E:C1XC5X C:C2IC6I J:C1CC2S             
/* PCV:IGS20_2317 OL/AL:FES2004  NONE     YN ORB:CoN CLK:CoN
*  2024 06 28  4 15  0.00000000
PC01 -34312.129804  24481.788893   1141.404173    904.684498
PC02   4311.681742  41905.907976   -511.512313    808.962795
PC03 -14781.080721  39447.629516    526.023139    478.434099
PC04 -39598.051917  14421.235689   1316.075896   -619.710168
PC05  21873.907610  36025.285921   -810.607280   -652.210361
PC06 -10548.814835  22930.998354 -33712.298145    542.824359
PC07 -13708.092702  38763.375729   8806.905205   -598.684125
PC08   1319.368531  35169.604691  23365.819123   -257.569837
PC09    107.731482  24571.600974 -33731.912666     47.050039
PC10  -7889.972657  38663.027685  14343.291517    -50.229141
PC11  24322.367974 -10703.539303  -8484.895922    635.329889
PC12  26064.001556   1167.832897   9947.185514   -260.192564
PC13   5421.337957  37656.121974  18627.575278    438.593222
PC14  15676.328754 -17698.668238 -14868.924703    911.004111
PC16 -11917.087833  21951.034169 -33719.719908   -619.066179
PC19 -11929.098836  24286.617234   6774.531874   -915.752530
PC20 -16875.747228   9932.368609  19871.685833   -624.214743
PC21  12036.511156  11895.992523 -22172.935922   -965.058778
PC22    192.554285  25586.226645 -11105.343813     43.058064
PC23  -8638.523176 -22975.640879  13286.092390   -791.895898
PC24  20904.840660   2731.892838  18287.662774    893.466854
PC25   8295.865702 -14496.544903  22346.635811    437.134432
PC26  21330.171473  17652.441322   3610.499571   -312.018894
PC27 -21073.880559  -7201.782725 -16840.960825    333.163197
PC28  -4972.238398 -15286.610488 -22809.023604    256.324501
PC29 -17293.292628  15848.051669  15106.857893    300.883744
PC30 -27197.982878   5868.050699  -2265.466105   -115.677319
PC32 -12078.627953 -11969.657961  22141.076120   -658.589007
PC33  11816.852848 -24354.916375  -6836.223053   -960.212556
PC34  27003.184846  -6981.168913    617.911402    465.269161
PC35   5081.720052  15307.320689  22755.520668    326.949500
PC36  -8467.095228  14430.326593 -22307.888419    122.079742
PC37 -20886.969364 -18144.019300  -3533.787728   -933.057001
PC38  -4957.342742  31145.458160  28095.322850    163.934267
PC39 -17979.810609  20832.892707 -31937.769360     -8.924812
PC40 -21481.788256  35330.162483   7341.426146    -77.369781
PC41    290.907521 -25950.025035  10340.818715   -955.314388
PC42  16902.915412  -8164.637886 -20623.092291   -448.880017
PC43  18095.865829 -15643.068355 -14374.152771     76.903560
PC44  21235.832061   6562.410952  16840.705091    516.719248
PC45   8366.891320  22922.135580 -13553.874959    -98.736076
PC60   7321.429584  41515.204252    874.913388     -0.748451
PE02 -12809.200292 -23254.160039 -13081.148368    138.976042
PE03 -11918.461514 -12093.377165  24244.524050   -123.285216
PE04  24335.152957  -5686.162772 -15860.222693   -431.864267
PE05   7176.230803 -22276.300507  18133.963410   4760.998897
PE07 -22382.058848  19330.037401  -1027.283869   -128.165513
PE08 -24000.147155   4931.020984  16598.884237   -294.020964
PE09  22438.097793 -19299.198537    954.993093   -495.680551
PE10  24833.475446  -1660.681239 -16040.002865   -636.170674
PE11  17116.887893  -9006.334580 -22420.803481   2522.001693
PE12  28034.807695   5133.544809  -7974.638219  -1100.571595
PE13 -17617.663223   8566.225321  22188.314919    -22.577930
PE14  26374.666426  -9621.621229  10608.472408     91.297308
PE15 -28115.587145  -5550.897695   7415.956568   -111.505903
PE18 -20863.575569  -1667.409277 -16618.591590    270.478970
PE19   9988.402810  13515.977659 -24356.142211    194.404096
PE21   1387.600151  29186.816166  -4712.717745   -602.406366
PE25  -1089.038155 -29134.806214   5127.250415      6.255312
PE26   3556.832999  17693.617340  23459.861741    496.507385
PE27 -11342.147086  18226.812778 -20375.742274   -386.389527
PE30 -17276.614189  -3467.314149 -23789.337583   -450.324857
PE31  17234.014782   3339.450536  23841.518291    -27.707608
PE33  21614.394638  16355.173880  11900.018793     13.227779
PE34 -21975.495053 -16162.131705 -11489.264179   -119.510504
PE36  -2976.326737 -17431.757407 -23742.946325   -247.341519
PG01   9114.862117 -17457.461123  17291.126994    251.804208
PG02 -18676.708706 -13576.976430 -12914.217919   -409.490017
PG03 -12433.571724 -19959.702014  12304.992750    433.809720
PG04 -11784.893709  -9760.799198  21735.966934    392.456013
PG05   5155.960595  25895.635526   2234.029226   -177.857026
PG06 -16882.586380   7512.711627  19180.183054    193.624132
PG07 -25851.697853  -5856.413326  -3495.771464    -81.969468
PG08  -2322.494259 -17395.763392 -19920.443992    250.168873
PG09 -19920.281564   1987.549708  17397.545462    251.732934
PG10  11689.512413 -11319.995505 -20709.268949    -52.806084
PG11  -2881.702797  14994.869391  21760.032637   -694.448503
PG12  10226.186183  22202.581954  10166.116161   -517.772061
PG13  -7714.078904  19037.963533 -16915.532687    660.930508
PG14 -14222.012154   7191.361201 -21183.305167    435.896937
PG15   4746.662268  17389.516784 -19955.668852    175.004836
PG16    300.543291 -25804.078348   4849.199159   -252.029474
PG17 -22524.075343  12867.025425  -5673.886743    687.587345
PG18  25638.770675   5255.148885  -5118.197007   -630.346610
PG19 -20147.983668  16741.717508   2574.492966    502.660195
PG20    143.546436  23647.001151  12303.686894    373.355827
PG21 -14386.673794 -15145.842330 -16545.575525    112.567759
PG22 -10749.325784  16033.645674 -17952.385544    -32.871290
PG23      0.000000      0.000000      0.000000 999999.999999
PG24  16513.745012  15093.793085 -15043.928551   -480.396990
PG25  15395.773514  13345.213678  16839.184037    497.909861
PG26   7132.864540 -19234.980752  16517.781049    129.584172
PG27   8717.179803 -20923.705564 -13780.339921    -29.637644
PG28  18791.425362  -7133.712442  17352.266738   -308.011514
PG29  18300.521364   2404.262263  19092.639816   -592.206304
PG30 -22762.639403   2958.032414 -13435.478526   -367.029941
PG31   8581.449348 -13012.025411  21325.834249   -227.139701
PG32  21141.449337 -15238.075449  -4326.079624   -614.667663
PJ02 -21894.898425  28453.540328 -17354.888655     -0.424524
PJ03 -27876.992110  24269.632135  25292.036059     -0.964689
PJ04 -29912.198729  28727.662834  13313.841235     50.433474
PJ07 -25366.110434  33675.796154    -10.550336     -0.056353
PR01   9642.805003 -23477.634832   2638.384713     89.721646
PR02     92.259164 -18229.508361  17856.203646    -23.463848
PR03 -10598.609536  -2967.013684  23060.714359    102.866905
PR04 -15075.015163  13382.267918  15667.426201    243.077120
PR05 -11737.772668  22659.226969   -143.412228    133.753061
PR06   1534.300458  17491.672336 -18520.051049   -169.505274
PR07  10860.284318   2304.168613 -22921.101518     85.505504
PR08  14997.256026 -13710.211535 -15339.532942     -5.394403
PR09  12372.821268  21725.999040  -4803.530084    194.658599
PR10  16904.009512  16299.546254  10053.397163   -182.654520
PR11  12991.347327    625.787908  21953.541056     19.990501
PR12    310.899629 -16466.846465  19505.109742     41.822611
PR13 -10631.415096 -21968.858716   7410.513767    -48.770399
PR14 -17006.352120 -14697.946315 -12064.446830     26.636292
PR15 -12285.313063    912.511379 -22312.647414     78.407531
PR16   -286.663513  16236.090354 -19642.229964     26.869703
PR17 -23140.595427  -3469.758839 -10099.186044     99.760221
PR18 -24430.116566   3814.688441   6369.537918    149.197032
PR19 -15143.290360   8463.892512  18690.745242   -281.896727
PR20   7550.178114   9899.243083  22259.372525   -115.221920
PR21  22990.518384   3774.052408  10415.997493   -112.961077
PR22  24094.452125  -3822.960660  -7413.700230     96.846504
PR23  11924.823408  -9562.672401 -20433.652557   -125.213123
PR24  -8602.424842  -9900.378334 -21862.628396    -61.610299
PR25  23176.604820   4370.379550   9748.514663    -91.044636
PR26  14883.544113 -12680.178330 -16375.468527     -5.330535
EOF
